start=new Date('2022-11-01T00:00:00.000Z').valueOf();
sats=[{"OBJECT_NAME":"STARLINK-4722","TLE_LINE2":"2 53775  53.2173  15.9798 0001519  38.6184  17.5677 15.53981847  1303","MEAN_MOTION_DOT":"-0.01129897","INCLINATION":"53.2173","OBJECT_ID":"2022-111C","PERIOD":"92.665","REV_AT_EPOCH":"130","COUNTRY_CODE":"US","CLASSIFICATION_TYPE":"U","ARG_OF_PERICENTER":"38.6184","OBJECT_TYPE":"PAYLOAD","FILE":"3639522","SEMIMAJOR_AXIS":"6783.251","MEAN_ANOMALY":"17.5677","SITE":"AFETR","TIME_SYSTEM":"UTC","LAUNCH_DATE":"2022-09-11","APOAPSIS":"406.146","MEAN_MOTION":"15.53981847","CENTER_NAME":"EARTH","RA_OF_ASC_NODE":"15.9798","EPOCH":"2022-10-31T22:00:01.999584","MEAN_MOTION_DDOT":"0.0000000000000","GP_ID":"216619704","MEAN_ELEMENT_THEORY":"SGP4","TLE_LINE1":"1 53775U 22111C   22304.91668981 -.01129897  00000-0 -19029-1 0  9994","ELEMENT_SET_NO":"999","BSTAR":"-0.01902900000000","REF_FRAME":"TEME","EPHEMERIS_TYPE":"0","PERIAPSIS":"404.086","ECCENTRICITY":"0.00015190","RCS_SIZE":"LARGE","NORAD_CAT_ID":"53775","DECAY_DATE":null},{"MEAN_ANOMALY":"9.3069","SITE":"AFETR","TIME_SYSTEM":"UTC","FILE":"3639522","SEMIMAJOR_AXIS":"6851.017","OBJECT_TYPE":"PAYLOAD","ARG_OF_PERICENTER":"40.0730","CENTER_NAME":"EARTH","MEAN_MOTION":"15.30982242","APOAPSIS":"473.983","LAUNCH_DATE":"2022-09-11","OBJECT_ID":"2022-111D","INCLINATION":"53.2172","MEAN_MOTION_DOT":"-0.01139742","TLE_LINE2":"2 53776  53.2172  18.1628 0001606  40.0730   9.3069 15.30982242  1300","OBJECT_NAME":"STARLINK-4708","CLASSIFICATION_TYPE":"U","COUNTRY_CODE":"US","REV_AT_EPOCH":"130","PERIOD":"94.057","EPHEMERIS_TYPE":"0","PERIAPSIS":"471.782","REF_FRAME":"TEME","BSTAR":"-0.04119900000000","ELEMENT_SET_NO":"999","TLE_LINE1":"1 53776U 22111D   22304.91668981 -.01139742  00000-0 -41199-1 0  9998","DECAY_DATE":null,"NORAD_CAT_ID":"53776","RCS_SIZE":"LARGE","ECCENTRICITY":"0.00016060","MEAN_MOTION_DDOT":"0.0000000000000","GP_ID":"216619535","EPOCH":"2022-10-31T22:00:01.999584","RA_OF_ASC_NODE":"18.1628","MEAN_ELEMENT_THEORY":"SGP4"},{"PERIOD":"92.656","CLASSIFICATION_TYPE":"U","REV_AT_EPOCH":"130","COUNTRY_CODE":"US","OBJECT_NAME":"STARLINK-4664","TLE_LINE2":"2 53777  53.2173  15.9693 0001596  38.0305  23.4464 15.54127482  1301","OBJECT_ID":"2022-111E","MEAN_MOTION_DOT":"-0.01130929","INCLINATION":"53.2173","LAUNCH_DATE":"2022-09-11","MEAN_MOTION":"15.54127482","CENTER_NAME":"EARTH","APOAPSIS":"405.775","ARG_OF_PERICENTER":"38.0305","OBJECT_TYPE":"PAYLOAD","MEAN_ANOMALY":"23.4464","SITE":"AFETR","TIME_SYSTEM":"UTC","FILE":"3639522","SEMIMAJOR_AXIS":"6782.827","MEAN_ELEMENT_THEORY":"SGP4","RA_OF_ASC_NODE":"15.9693","GP_ID":"216619195","MEAN_MOTION_DDOT":"0.0000000000000","EPOCH":"2022-10-31T22:00:01.999584","ECCENTRICITY":"0.00015960","RCS_SIZE":"LARGE","DECAY_DATE":null,"NORAD_CAT_ID":"53777","ELEMENT_SET_NO":"999","TLE_LINE1":"1 53777U 22111E   22304.91668981 -.01130929  00000-0 -18946-1 0  9991","PERIAPSIS":"403.610","EPHEMERIS_TYPE":"0","REF_FRAME":"TEME","BSTAR":"-0.01894600000000"},{"MEAN_ELEMENT_THEORY":"SGP4","RA_OF_ASC_NODE":"18.0099","EPOCH":"2022-10-31T22:00:01.999584","MEAN_MOTION_DDOT":"0.0000000000000","GP_ID":"216618947","ECCENTRICITY":"0.00016100","RCS_SIZE":"LARGE","NORAD_CAT_ID":"53778","DECAY_DATE":null,"TLE_LINE1":"1 53778U 22111F   22304.91668981 -.01138872  00000-0 -37496-1 0  9998","ELEMENT_SET_NO":"999","BSTAR":"-0.03749600000000","REF_FRAME":"TEME","PERIAPSIS":"462.988","EPHEMERIS_TYPE":"0","PERIOD":"93.876","REV_AT_EPOCH":"130","COUNTRY_CODE":"US","CLASSIFICATION_TYPE":"U","OBJECT_NAME":"STARLINK-4709","TLE_LINE2":"2 53778  53.2173  18.0099 0001610  46.5215  80.1455 15.33934256  1309","INCLINATION":"53.2173","MEAN_MOTION_DOT":"-0.01138872","OBJECT_ID":"2022-111F","LAUNCH_DATE":"2022-09-11","APOAPSIS":"465.191","MEAN_MOTION":"15.33934256","CENTER_NAME":"EARTH","ARG_OF_PERICENTER":"46.5215","OBJECT_TYPE":"PAYLOAD","SEMIMAJOR_AXIS":"6842.225","FILE":"3639522","SITE":"AFETR","TIME_SYSTEM":"UTC","MEAN_ANOMALY":"80.1455"},{"ARG_OF_PERICENTER":"43.0011","OBJECT_TYPE":"PAYLOAD","TIME_SYSTEM":"UTC","SITE":"AFETR","MEAN_ANOMALY":"21.0402","FILE":"3639522","SEMIMAJOR_AXIS":"6782.627","LAUNCH_DATE":"2022-09-11","CENTER_NAME":"EARTH","MEAN_MOTION":"15.54196361","APOAPSIS":"405.435","TLE_LINE2":"2 53779  53.2173  15.9643 0001390  43.0011  21.0402 15.54196361  1308","OBJECT_NAME":"STARLINK-4706","OBJECT_ID":"2022-111G","INCLINATION":"53.2173","MEAN_MOTION_DOT":"-0.01129563","PERIOD":"92.652","CLASSIFICATION_TYPE":"U","COUNTRY_CODE":"US","REV_AT_EPOCH":"130","ELEMENT_SET_NO":"999","TLE_LINE1":"1 53779U 22111G   22304.91668981 -.01129563  00000-0 -18874-1 0  9995","EPHEMERIS_TYPE":"0","PERIAPSIS":"403.549","REF_FRAME":"TEME","BSTAR":"-0.01887400000000","ECCENTRICITY":"0.00013900","NORAD_CAT_ID":"53779","DECAY_DATE":null,"RCS_SIZE":"LARGE","RA_OF_ASC_NODE":"15.9643","GP_ID":"216619962","MEAN_MOTION_DDOT":"0.0000000000000","EPOCH":"2022-10-31T22:00:01.999584","MEAN_ELEMENT_THEORY":"SGP4"},{"ECCENTRICITY":"0.00015120","RCS_SIZE":"LARGE","NORAD_CAT_ID":"53780","DECAY_DATE":null,"TLE_LINE1":"1 53780U 22111H   22304.91668981 -.01131475  00000-0 -19008-1 0  9992","ELEMENT_SET_NO":"999","BSTAR":"-0.01900800000000","REF_FRAME":"TEME","EPHEMERIS_TYPE":"0","PERIAPSIS":"403.881","MEAN_ELEMENT_THEORY":"SGP4","RA_OF_ASC_NODE":"15.9746","EPOCH":"2022-10-31T22:00:01.999584","GP_ID":"216619793","MEAN_MOTION_DDOT":"0.0000000000000","LAUNCH_DATE":"2022-09-11","APOAPSIS":"405.932","MEAN_MOTION":"15.54053911","CENTER_NAME":"EARTH","ARG_OF_PERICENTER":"40.1162","OBJECT_TYPE":"PAYLOAD","FILE":"3639522","SEMIMAJOR_AXIS":"6783.041","MEAN_ANOMALY":"18.6741","SITE":"AFETR","TIME_SYSTEM":"UTC","PERIOD":"92.661","REV_AT_EPOCH":"130","COUNTRY_CODE":"US","CLASSIFICATION_TYPE":"U","OBJECT_NAME":"STARLINK-4678","TLE_LINE2":"2 53780  53.2172  15.9746 0001512  40.1162  18.6741 15.54053911  1305","INCLINATION":"53.2172","MEAN_MOTION_DOT":"-0.01131475","OBJECT_ID":"2022-111H"},{"ELEMENT_SET_NO":"999","TLE_LINE1":"1 53781U 22111J   22304.91668981 -.01130960  00000-0 -18751-1 0  9995","EPHEMERIS_TYPE":"0","PERIAPSIS":"402.840","REF_FRAME":"TEME","BSTAR":"-0.01875100000000","ECCENTRICITY":"0.00015200","DECAY_DATE":null,"NORAD_CAT_ID":"53781","RCS_SIZE":"LARGE","RA_OF_ASC_NODE":"15.9488","MEAN_MOTION_DDOT":"0.0000000000000","GP_ID":"216618778","EPOCH":"2022-10-31T22:00:01.999584","MEAN_ELEMENT_THEORY":"SGP4","OBJECT_TYPE":"PAYLOAD","ARG_OF_PERICENTER":"42.4900","SITE":"AFETR","MEAN_ANOMALY":"29.2650","TIME_SYSTEM":"UTC","FILE":"3639522","SEMIMAJOR_AXIS":"6782.006","LAUNCH_DATE":"2022-09-11","CENTER_NAME":"EARTH","MEAN_MOTION":"15.54409778","APOAPSIS":"404.902","TLE_LINE2":"2 53781  53.2172  15.9488 0001520  42.4900  29.2650 15.54409778  1306","OBJECT_NAME":"STARLINK-4462","OBJECT_ID":"2022-111J","INCLINATION":"53.2172","MEAN_MOTION_DOT":"-0.01130960","PERIOD":"92.640","CLASSIFICATION_TYPE":"U","COUNTRY_CODE":"US","REV_AT_EPOCH":"130"},{"REF_FRAME":"TEME","BSTAR":"-0.01885600000000","PERIAPSIS":"403.251","EPHEMERIS_TYPE":"0","TLE_LINE1":"1 53782U 22111K   22304.91668981 -.01131391  00000-0 -18856-1 0  9991","ELEMENT_SET_NO":"999","NORAD_CAT_ID":"53782","DECAY_DATE":null,"RCS_SIZE":"LARGE","ECCENTRICITY":"0.00015150","EPOCH":"2022-10-31T22:00:01.999584","GP_ID":"216619365","MEAN_MOTION_DDOT":"0.0000000000000","RA_OF_ASC_NODE":"15.9588","MEAN_ELEMENT_THEORY":"SGP4","FILE":"3639522","SEMIMAJOR_AXIS":"6782.413","SITE":"AFETR","MEAN_ANOMALY":"27.5128","TIME_SYSTEM":"UTC","ARG_OF_PERICENTER":"39.1392","OBJECT_TYPE":"PAYLOAD","APOAPSIS":"405.306","CENTER_NAME":"EARTH","MEAN_MOTION":"15.54269762","LAUNCH_DATE":"2022-09-11","INCLINATION":"53.2173","MEAN_MOTION_DOT":"-0.01131391","OBJECT_ID":"2022-111K","TLE_LINE2":"2 53782  53.2173  15.9588 0001515  39.1392  27.5128 15.54269762  1309","OBJECT_NAME":"STARLINK-4679","COUNTRY_CODE":"US","REV_AT_EPOCH":"130","CLASSIFICATION_TYPE":"U","PERIOD":"92.648"},{"ECCENTRICITY":"0.00016220","DECAY_DATE":null,"NORAD_CAT_ID":"53783","RCS_SIZE":"LARGE","ELEMENT_SET_NO":"999","TLE_LINE1":"1 53783U 22111L   22304.91668981 -.01130060  00000-0 -18635-1 0  9999","PERIAPSIS":"402.354","EPHEMERIS_TYPE":"0","REF_FRAME":"TEME","BSTAR":"-0.01863500000000","MEAN_ELEMENT_THEORY":"SGP4","RA_OF_ASC_NODE":"15.9384","GP_ID":"216619705","MEAN_MOTION_DDOT":"0.0000000000000","EPOCH":"2022-10-31T22:00:01.999584","LAUNCH_DATE":"2022-09-11","CENTER_NAME":"EARTH","MEAN_MOTION":"15.54553197","APOAPSIS":"404.554","OBJECT_TYPE":"PAYLOAD","ARG_OF_PERICENTER":"36.7763","TIME_SYSTEM":"UTC","SITE":"AFETR","MEAN_ANOMALY":"40.1581","SEMIMAJOR_AXIS":"6781.589","FILE":"3639522","PERIOD":"92.631","CLASSIFICATION_TYPE":"U","COUNTRY_CODE":"US","REV_AT_EPOCH":"130","TLE_LINE2":"2 53783  53.2173  15.9384 0001622  36.7763  40.1581 15.54553197  1300","OBJECT_NAME":"STARLINK-4536","OBJECT_ID":"2022-111L","INCLINATION":"53.2173","MEAN_MOTION_DOT":"-0.01130060"},{"EPOCH":"2022-10-31T22:00:01.999584","MEAN_MOTION_DDOT":"0.0000000000000","GP_ID":"216619536","RA_OF_ASC_NODE":"15.9537","MEAN_ELEMENT_THEORY":"SGP4","REF_FRAME":"TEME","BSTAR":"-0.01881100000000","PERIAPSIS":"402.994","EPHEMERIS_TYPE":"0","TLE_LINE1":"1 53784U 22111M   22304.91668981 -.01131662  00000-0 -18811-1 0  9995","ELEMENT_SET_NO":"999","RCS_SIZE":"LARGE","DECAY_DATE":null,"NORAD_CAT_ID":"53784","ECCENTRICITY":"0.00015870","INCLINATION":"53.2173","MEAN_MOTION_DOT":"-0.01131662","OBJECT_ID":"2022-111M","OBJECT_NAME":"STARLINK-4687","TLE_LINE2":"2 53784  53.2173  15.9537 0001587  36.2671  32.9706 15.54341160  1307","REV_AT_EPOCH":"130","COUNTRY_CODE":"US","CLASSIFICATION_TYPE":"U","PERIOD":"92.644","SEMIMAJOR_AXIS":"6782.205","FILE":"3639522","SITE":"AFETR","TIME_SYSTEM":"UTC","MEAN_ANOMALY":"32.9706","ARG_OF_PERICENTER":"36.2671","OBJECT_TYPE":"PAYLOAD","APOAPSIS":"405.147","MEAN_MOTION":"15.54341160","CENTER_NAME":"EARTH","LAUNCH_DATE":"2022-09-11"}];
